STARLINK-36040          
1 66614U 25270AC  25345.58335648 -.00165686  00000+0 -28744-2 0  9990
2 66614  42.9997 199.3701 0001878 265.0045 191.3482 15.50616948  4053
STARLINK-35988          
1 66615U 25270AD  25345.58335648 -.00398403  00000+0 -70813-2 0  9990
2 66615  42.9997 199.3748 0001775 249.7036 204.6377 15.50794523  4057
STARLINK-35391          
1 66616U 25270AE  25345.58335648 -.00179329  00000+0 -31162-2 0  9999
2 66616  42.9998 199.3654 0001920 263.6495 194.6204 15.50624312  4326
STARLINK-35940          
1 66617U 25271A   25345.58335648 -.02027007  00000+0 -33365-1 0  9994
2 66617  53.1605 192.7858 0001018  90.2466  12.2107 15.54900031  4055
STARLINK-35970          
1 66618U 25271B   25345.58335648 -.02022491  00000+0 -33281-1 0  9994
2 66618  53.1597 192.6739 0001137  96.4141  59.3631 15.54899190  4050
STARLINK-35951          
1 66619U 25271C   25345.58335648 -.02027247  00000+0 -33366-1 0  9993
2 66619  53.1601 192.7685 0001010 108.7220   1.3979 15.54902640  4050
STARLINK-35936          
1 66620U 25271D   25345.58335648 -.02026465  00000+0 -33354-1 0  9993
2 66620  53.1600 192.7819 0000881 100.6675   3.7033 15.54901740  4057
STARLINK-35847          
1 66621U 25271E   25345.58335648 -.02029267  00000+0 -33402-1 0  9991
2 66621  53.1597 192.6660 0001287  93.4490  65.8697 15.54901197  4052
STARLINK-35950          
1 66622U 25271F   25345.58335648 -.02031315  00000+0 -33437-1 0  9997
2 66622  53.1600 192.7658 0001037  86.8572  25.1794 15.54905030  4053
STARLINK-35920          
1 66623U 25271G   25345.58335648 -.02026790  00000+0 -33360-1 0  9994
2 66623  53.1602 192.7569 0000917 104.8001  11.0721 15.54901451  4058
STARLINK-35927          
1 66624U 25271H   25345.58335648 -.02024570  00000+0 -33319-1 0  9993
2 66624  53.1600 192.7617 0001045  97.6355  16.3190 15.54900516  4054
STARLINK-35929          
1 66625U 25271J   25345.58335648 -.02021719  00000+0 -33270-1 0  9992
2 66625  53.1602 192.7531 0000900 106.2732  11.5151 15.54899048  4058
