CCSDS_OMM_VERS = 2.0
CREATION_DATE  = 
ORIGINATOR     = 

OBJECT_NAME    = STARLINK-36040
OBJECT_ID      = 2025-270AC
CENTER_NAME    = EARTH
REF_FRAME      = TEME
TIME_SYSTEM    = UTC
MEAN_ELEMENT_THEORY = SGP/SGP4

EPOCH          = 2025-12-11T14:00:01.999872
MEAN_MOTION    = 15.50616948
ECCENTRICITY   = .00018782
INCLINATION    = 42.9997
RA_OF_ASC_NODE = 199.3701
ARG_OF_PERICENTER = 265.0045
MEAN_ANOMALY   = 191.3482

EPHEMERIS_TYPE = 0
CLASSIFICATION_TYPE = U
NORAD_CAT_ID   = 66614
ELEMENT_SET_NO = 999
REV_AT_EPOCH   = 405
BSTAR          = -.28744458E-2
MEAN_MOTION_DOT = -.165686E-2
MEAN_MOTION_DDOT = 0

CCSDS_OMM_VERS = 2.0
CREATION_DATE  = 
ORIGINATOR     = 

OBJECT_NAME    = STARLINK-35988
OBJECT_ID      = 2025-270AD
CENTER_NAME    = EARTH
REF_FRAME      = TEME
TIME_SYSTEM    = UTC
MEAN_ELEMENT_THEORY = SGP/SGP4

EPOCH          = 2025-12-11T14:00:01.999872
MEAN_MOTION    = 15.50794523
ECCENTRICITY   = .00017758
INCLINATION    = 42.9997
RA_OF_ASC_NODE = 199.3748
ARG_OF_PERICENTER = 249.7036
MEAN_ANOMALY   = 204.6377

EPHEMERIS_TYPE = 0
CLASSIFICATION_TYPE = U
NORAD_CAT_ID   = 66615
ELEMENT_SET_NO = 999
REV_AT_EPOCH   = 405
BSTAR          = -.70813017E-2
MEAN_MOTION_DOT = -.398403E-2
MEAN_MOTION_DDOT = 0

CCSDS_OMM_VERS = 2.0
CREATION_DATE  = 
ORIGINATOR     = 

OBJECT_NAME    = STARLINK-35391
OBJECT_ID      = 2025-270AE
CENTER_NAME    = EARTH
REF_FRAME      = TEME
TIME_SYSTEM    = UTC
MEAN_ELEMENT_THEORY = SGP/SGP4

EPOCH          = 2025-12-11T14:00:01.999872
MEAN_MOTION    = 15.50624312
ECCENTRICITY   = .00019205
INCLINATION    = 42.9998
RA_OF_ASC_NODE = 199.3654
ARG_OF_PERICENTER = 263.6495
MEAN_ANOMALY   = 194.6204

EPHEMERIS_TYPE = 0
CLASSIFICATION_TYPE = U
NORAD_CAT_ID   = 66616
ELEMENT_SET_NO = 999
REV_AT_EPOCH   = 432
BSTAR          = -.31161753E-2
MEAN_MOTION_DOT = -.179329E-2
MEAN_MOTION_DDOT = 0

CCSDS_OMM_VERS = 2.0
CREATION_DATE  = 
ORIGINATOR     = 

OBJECT_NAME    = STARLINK-35940
OBJECT_ID      = 2025-271A
CENTER_NAME    = EARTH
REF_FRAME      = TEME
TIME_SYSTEM    = UTC
MEAN_ELEMENT_THEORY = SGP/SGP4

EPOCH          = 2025-12-11T14:00:01.999872
MEAN_MOTION    = 15.54900031
ECCENTRICITY   = .00010186
INCLINATION    = 53.1605
RA_OF_ASC_NODE = 192.7858
ARG_OF_PERICENTER = 90.2466
MEAN_ANOMALY   = 12.2107

EPHEMERIS_TYPE = 0
CLASSIFICATION_TYPE = U
NORAD_CAT_ID   = 66617
ELEMENT_SET_NO = 999
REV_AT_EPOCH   = 405
BSTAR          = -.33364535E-1
MEAN_MOTION_DOT = -.2027007E-1
MEAN_MOTION_DDOT = 0

CCSDS_OMM_VERS = 2.0
CREATION_DATE  = 
ORIGINATOR     = 

OBJECT_NAME    = STARLINK-35970
OBJECT_ID      = 2025-271B
CENTER_NAME    = EARTH
REF_FRAME      = TEME
TIME_SYSTEM    = UTC
MEAN_ELEMENT_THEORY = SGP/SGP4

EPOCH          = 2025-12-11T14:00:01.999872
MEAN_MOTION    = 15.54899190
ECCENTRICITY   = .00011375
INCLINATION    = 53.1597
RA_OF_ASC_NODE = 192.6739
ARG_OF_PERICENTER = 96.4141
MEAN_ANOMALY   = 59.3631

EPHEMERIS_TYPE = 0
CLASSIFICATION_TYPE = U
NORAD_CAT_ID   = 66618
ELEMENT_SET_NO = 999
REV_AT_EPOCH   = 405
BSTAR          = -.33281114E-1
MEAN_MOTION_DOT = -.2022491E-1
MEAN_MOTION_DDOT = 0

CCSDS_OMM_VERS = 2.0
CREATION_DATE  = 
ORIGINATOR     = 

OBJECT_NAME    = STARLINK-35951
OBJECT_ID      = 2025-271C
CENTER_NAME    = EARTH
REF_FRAME      = TEME
TIME_SYSTEM    = UTC
MEAN_ELEMENT_THEORY = SGP/SGP4

EPOCH          = 2025-12-11T14:00:01.999872
MEAN_MOTION    = 15.54902640
ECCENTRICITY   = .00010109
INCLINATION    = 53.1601
RA_OF_ASC_NODE = 192.7685
ARG_OF_PERICENTER = 108.7220
MEAN_ANOMALY   = 1.3979

EPHEMERIS_TYPE = 0
CLASSIFICATION_TYPE = U
NORAD_CAT_ID   = 66619
ELEMENT_SET_NO = 999
REV_AT_EPOCH   = 405
BSTAR          = -.33365809E-1
MEAN_MOTION_DOT = -.2027247E-1
MEAN_MOTION_DDOT = 0

CCSDS_OMM_VERS = 2.0
CREATION_DATE  = 
ORIGINATOR     = 

OBJECT_NAME    = STARLINK-35936
OBJECT_ID      = 2025-271D
CENTER_NAME    = EARTH
REF_FRAME      = TEME
TIME_SYSTEM    = UTC
MEAN_ELEMENT_THEORY = SGP/SGP4

EPOCH          = 2025-12-11T14:00:01.999872
MEAN_MOTION    = 15.54901740
ECCENTRICITY   = .00008815
INCLINATION    = 53.1600
RA_OF_ASC_NODE = 192.7819
ARG_OF_PERICENTER = 100.6675
MEAN_ANOMALY   = 3.7033

EPHEMERIS_TYPE = 0
CLASSIFICATION_TYPE = U
NORAD_CAT_ID   = 66620
ELEMENT_SET_NO = 999
REV_AT_EPOCH   = 405
BSTAR          = -.33353909E-1
MEAN_MOTION_DOT = -.2026465E-1
MEAN_MOTION_DDOT = 0

CCSDS_OMM_VERS = 2.0
CREATION_DATE  = 
ORIGINATOR     = 

OBJECT_NAME    = STARLINK-35847
OBJECT_ID      = 2025-271E
CENTER_NAME    = EARTH
REF_FRAME      = TEME
TIME_SYSTEM    = UTC
MEAN_ELEMENT_THEORY = SGP/SGP4

EPOCH          = 2025-12-11T14:00:01.999872
MEAN_MOTION    = 15.54901197
ECCENTRICITY   = .00012877
INCLINATION    = 53.1597
RA_OF_ASC_NODE = 192.6660
ARG_OF_PERICENTER = 93.4490
MEAN_ANOMALY   = 65.8697

EPHEMERIS_TYPE = 0
CLASSIFICATION_TYPE = U
NORAD_CAT_ID   = 66621
ELEMENT_SET_NO = 999
REV_AT_EPOCH   = 405
BSTAR          = -.33401726E-1
MEAN_MOTION_DOT = -.2029267E-1
MEAN_MOTION_DDOT = 0

CCSDS_OMM_VERS = 2.0
CREATION_DATE  = 
ORIGINATOR     = 

OBJECT_NAME    = STARLINK-35950
OBJECT_ID      = 2025-271F
CENTER_NAME    = EARTH
REF_FRAME      = TEME
TIME_SYSTEM    = UTC
MEAN_ELEMENT_THEORY = SGP/SGP4

EPOCH          = 2025-12-11T14:00:01.999872
MEAN_MOTION    = 15.54905030
ECCENTRICITY   = .00010373
INCLINATION    = 53.1600
RA_OF_ASC_NODE = 192.7658
ARG_OF_PERICENTER = 86.8572
MEAN_ANOMALY   = 25.1794

EPHEMERIS_TYPE = 0
CLASSIFICATION_TYPE = U
NORAD_CAT_ID   = 66622
ELEMENT_SET_NO = 999
REV_AT_EPOCH   = 405
BSTAR          = -.33437491E-1
MEAN_MOTION_DOT = -.2031315E-1
MEAN_MOTION_DDOT = 0

CCSDS_OMM_VERS = 2.0
CREATION_DATE  = 
ORIGINATOR     = 

OBJECT_NAME    = STARLINK-35920
OBJECT_ID      = 2025-271G
CENTER_NAME    = EARTH
REF_FRAME      = TEME
TIME_SYSTEM    = UTC
MEAN_ELEMENT_THEORY = SGP/SGP4

EPOCH          = 2025-12-11T14:00:01.999872
MEAN_MOTION    = 15.54901451
ECCENTRICITY   = .00009179
INCLINATION    = 53.1602
RA_OF_ASC_NODE = 192.7569
ARG_OF_PERICENTER = 104.8001
MEAN_ANOMALY   = 11.0721

EPHEMERIS_TYPE = 0
CLASSIFICATION_TYPE = U
NORAD_CAT_ID   = 66623
ELEMENT_SET_NO = 999
REV_AT_EPOCH   = 405
BSTAR          = -.33359869E-1
MEAN_MOTION_DOT = -.202679E-1
MEAN_MOTION_DDOT = 0

CCSDS_OMM_VERS = 2.0
CREATION_DATE  = 
ORIGINATOR     = 

OBJECT_NAME    = STARLINK-35927
OBJECT_ID      = 2025-271H
CENTER_NAME    = EARTH
REF_FRAME      = TEME
TIME_SYSTEM    = UTC
MEAN_ELEMENT_THEORY = SGP/SGP4

EPOCH          = 2025-12-11T14:00:01.999872
MEAN_MOTION    = 15.54900516
ECCENTRICITY   = .00010456
INCLINATION    = 53.1600
RA_OF_ASC_NODE = 192.7617
ARG_OF_PERICENTER = 97.6355
MEAN_ANOMALY   = 16.3190

EPHEMERIS_TYPE = 0
CLASSIFICATION_TYPE = U
NORAD_CAT_ID   = 66624
ELEMENT_SET_NO = 999
REV_AT_EPOCH   = 405
BSTAR          = -.33318762E-1
MEAN_MOTION_DOT = -.202457E-1
MEAN_MOTION_DDOT = 0

CCSDS_OMM_VERS = 2.0
CREATION_DATE  = 
ORIGINATOR     = 

OBJECT_NAME    = STARLINK-35929
OBJECT_ID      = 2025-271J
CENTER_NAME    = EARTH
REF_FRAME      = TEME
TIME_SYSTEM    = UTC
MEAN_ELEMENT_THEORY = SGP/SGP4

EPOCH          = 2025-12-11T14:00:01.999872
MEAN_MOTION    = 15.54899048
ECCENTRICITY   = .00009005
INCLINATION    = 53.1602
RA_OF_ASC_NODE = 192.7531
ARG_OF_PERICENTER = 106.2732
MEAN_ANOMALY   = 11.5151

EPHEMERIS_TYPE = 0
CLASSIFICATION_TYPE = U
NORAD_CAT_ID   = 66625
ELEMENT_SET_NO = 999
REV_AT_EPOCH   = 405
BSTAR          = -.3326967E-1
MEAN_MOTION_DOT = -.2021719E-1
MEAN_MOTION_DDOT = 0

